ORBCOMM FM05 [-]        
1 25117U 97084F   24016.90493022  .00003160  00000+0  99674-3 0  9993
2 25117  45.0166 323.7227 0000859 152.4077 207.6819 14.42019190365844
ORBCOMM FM06 [+]        
1 25118U 97084G   24016.94286193  .00003458  00000+0  10872-2 0  9999
2 25118  45.0161 323.7212 0000470 229.8224 178.2658 14.42000878366765
ORBCOMM FM07 [-]        
1 25119U 97084H   24016.84982463  .00003398  00000+0  10705-2 0  9990
2 25119  45.0154 324.6427 0001536 121.0312 239.0689 14.41935622366742
ORBCOMM FM03 [-]        
1 25158U 98007B   24016.88051301  .00002155  00000+0  84581-3 0  9995
2 25158 107.9730 155.1124 0045040  71.5729 289.0298 14.31716785349932
ORBCOMM FM04 [+]        
1 25159U 98007C   24017.16906937  .00002166  00000+0  84719-3 0  9997
2 25159 107.9715 158.5631 0040576  68.8302 291.7166 14.31974273350250
ORBCOMM FM17 [-]        
1 25413U 98046A   24016.80146028  .00002004  00000+0  78087-3 0  9992
2 25413  44.9934 174.6421 0002868 151.9826 208.1175 14.32704570328911
ORBCOMM FM18 [-]        
1 25414U 98046B   24016.52356738  .00002934  00000+0  10625-2 0  9998
2 25414  44.9936 105.4177 0005820 208.8115 151.2411 14.35328113329794
ORBCOMM FM19 [+]        
1 25415U 98046C   24016.64563986  .00002630  00000+0  96031-3 0  9996
2 25415  44.9945 106.1014 0004497 206.3519 307.7302 14.35177829329774
