<?xml version="1.0" encoding="UTF-8"?>
<ndm xmlns:xsi="http://www.w3.org/2001/XMLSchema-instance" xsi:noNamespaceSchemaLocation="https://sanaregistry.org/r/ndmxml_unqualified/ndmxml-2.0.0-master-2.0.xsd">
<omm id="CCSDS_OMM_VERS" version="2.0">
<header><CREATION_DATE/><ORIGINATOR/></header><body><segment><metadata><OBJECT_NAME>ORBCOMM FM05 [-]</OBJECT_NAME><OBJECT_ID>1997-084F</OBJECT_ID><CENTER_NAME>EARTH</CENTER_NAME><REF_FRAME>TEME</REF_FRAME><TIME_SYSTEM>UTC</TIME_SYSTEM><MEAN_ELEMENT_THEORY>SGP4</MEAN_ELEMENT_THEORY></metadata><data><meanElements><EPOCH>2024-01-16T21:43:05.971008</EPOCH><MEAN_MOTION>14.42019190</MEAN_MOTION><ECCENTRICITY>.0000859</ECCENTRICITY><INCLINATION>45.0166</INCLINATION><RA_OF_ASC_NODE>323.7227</RA_OF_ASC_NODE><ARG_OF_PERICENTER>152.4077</ARG_OF_PERICENTER><MEAN_ANOMALY>207.6819</MEAN_ANOMALY></meanElements><tleParameters><EPHEMERIS_TYPE>0</EPHEMERIS_TYPE><CLASSIFICATION_TYPE>U</CLASSIFICATION_TYPE><NORAD_CAT_ID>25117</NORAD_CAT_ID><ELEMENT_SET_NO>999</ELEMENT_SET_NO><REV_AT_EPOCH>36584</REV_AT_EPOCH><BSTAR>.99674E-3</BSTAR><MEAN_MOTION_DOT>.316E-4</MEAN_MOTION_DOT><MEAN_MOTION_DDOT>0</MEAN_MOTION_DDOT></tleParameters></data></segment></body></omm>
<omm id="CCSDS_OMM_VERS" version="2.0">
<header><CREATION_DATE/><ORIGINATOR/></header><body><segment><metadata><OBJECT_NAME>ORBCOMM FM06 [+]</OBJECT_NAME><OBJECT_ID>1997-084G</OBJECT_ID><CENTER_NAME>EARTH</CENTER_NAME><REF_FRAME>TEME</REF_FRAME><TIME_SYSTEM>UTC</TIME_SYSTEM><MEAN_ELEMENT_THEORY>SGP4</MEAN_ELEMENT_THEORY></metadata><data><meanElements><EPOCH>2024-01-16T22:37:43.270752</EPOCH><MEAN_MOTION>14.42000878</MEAN_MOTION><ECCENTRICITY>.000047</ECCENTRICITY><INCLINATION>45.0161</INCLINATION><RA_OF_ASC_NODE>323.7212</RA_OF_ASC_NODE><ARG_OF_PERICENTER>229.8224</ARG_OF_PERICENTER><MEAN_ANOMALY>178.2658</MEAN_ANOMALY></meanElements><tleParameters><EPHEMERIS_TYPE>0</EPHEMERIS_TYPE><CLASSIFICATION_TYPE>U</CLASSIFICATION_TYPE><NORAD_CAT_ID>25118</NORAD_CAT_ID><ELEMENT_SET_NO>999</ELEMENT_SET_NO><REV_AT_EPOCH>36676</REV_AT_EPOCH><BSTAR>.10872E-2</BSTAR><MEAN_MOTION_DOT>.3458E-4</MEAN_MOTION_DOT><MEAN_MOTION_DDOT>0</MEAN_MOTION_DDOT></tleParameters></data></segment></body></omm>
<omm id="CCSDS_OMM_VERS" version="2.0">
<header><CREATION_DATE/><ORIGINATOR/></header><body><segment><metadata><OBJECT_NAME>ORBCOMM FM07 [-]</OBJECT_NAME><OBJECT_ID>1997-084H</OBJECT_ID><CENTER_NAME>EARTH</CENTER_NAME><REF_FRAME>TEME</REF_FRAME><TIME_SYSTEM>UTC</TIME_SYSTEM><MEAN_ELEMENT_THEORY>SGP4</MEAN_ELEMENT_THEORY></metadata><data><meanElements><EPOCH>2024-01-16T20:23:44.848032</EPOCH><MEAN_MOTION>14.41935622</MEAN_MOTION><ECCENTRICITY>.0001536</ECCENTRICITY><INCLINATION>45.0154</INCLINATION><RA_OF_ASC_NODE>324.6427</RA_OF_ASC_NODE><ARG_OF_PERICENTER>121.0312</ARG_OF_PERICENTER><MEAN_ANOMALY>239.0689</MEAN_ANOMALY></meanElements><tleParameters><EPHEMERIS_TYPE>0</EPHEMERIS_TYPE><CLASSIFICATION_TYPE>U</CLASSIFICATION_TYPE><NORAD_CAT_ID>25119</NORAD_CAT_ID><ELEMENT_SET_NO>999</ELEMENT_SET_NO><REV_AT_EPOCH>36674</REV_AT_EPOCH><BSTAR>.10705E-2</BSTAR><MEAN_MOTION_DOT>.3398E-4</MEAN_MOTION_DOT><MEAN_MOTION_DDOT>0</MEAN_MOTION_DDOT></tleParameters></data></segment></body></omm>
<omm id="CCSDS_OMM_VERS" version="2.0">
<header><CREATION_DATE/><ORIGINATOR/></header><body><segment><metadata><OBJECT_NAME>ORBCOMM FM03 [-]</OBJECT_NAME><OBJECT_ID>1998-007B</OBJECT_ID><CENTER_NAME>EARTH</CENTER_NAME><REF_FRAME>TEME</REF_FRAME><TIME_SYSTEM>UTC</TIME_SYSTEM><MEAN_ELEMENT_THEORY>SGP4</MEAN_ELEMENT_THEORY></metadata><data><meanElements><EPOCH>2024-01-16T21:07:56.324064</EPOCH><MEAN_MOTION>14.31716785</MEAN_MOTION><ECCENTRICITY>.004504</ECCENTRICITY><INCLINATION>107.9730</INCLINATION><RA_OF_ASC_NODE>155.1124</RA_OF_ASC_NODE><ARG_OF_PERICENTER>71.5729</ARG_OF_PERICENTER><MEAN_ANOMALY>289.0298</MEAN_ANOMALY></meanElements><tleParameters><EPHEMERIS_TYPE>0</EPHEMERIS_TYPE><CLASSIFICATION_TYPE>U</CLASSIFICATION_TYPE><NORAD_CAT_ID>25158</NORAD_CAT_ID><ELEMENT_SET_NO>999</ELEMENT_SET_NO><REV_AT_EPOCH>34993</REV_AT_EPOCH><BSTAR>.84581E-3</BSTAR><MEAN_MOTION_DOT>.2155E-4</MEAN_MOTION_DOT><MEAN_MOTION_DDOT>0</MEAN_MOTION_DDOT></tleParameters></data></segment></body></omm>
<omm id="CCSDS_OMM_VERS" version="2.0">
<header><CREATION_DATE/><ORIGINATOR/></header><body><segment><metadata><OBJECT_NAME>ORBCOMM FM04 [+]</OBJECT_NAME><OBJECT_ID>1998-007C</OBJECT_ID><CENTER_NAME>EARTH</CENTER_NAME><REF_FRAME>TEME</REF_FRAME><TIME_SYSTEM>UTC</TIME_SYSTEM><MEAN_ELEMENT_THEORY>SGP4</MEAN_ELEMENT_THEORY></metadata><data><meanElements><EPOCH>2024-01-17T04:03:27.593568</EPOCH><MEAN_MOTION>14.31974273</MEAN_MOTION><ECCENTRICITY>.0040576</ECCENTRICITY><INCLINATION>107.9715</INCLINATION><RA_OF_ASC_NODE>158.5631</RA_OF_ASC_NODE><ARG_OF_PERICENTER>68.8302</ARG_OF_PERICENTER><MEAN_ANOMALY>291.7166</MEAN_ANOMALY></meanElements><tleParameters><EPHEMERIS_TYPE>0</EPHEMERIS_TYPE><CLASSIFICATION_TYPE>U</CLASSIFICATION_TYPE><NORAD_CAT_ID>25159</NORAD_CAT_ID><ELEMENT_SET_NO>999</ELEMENT_SET_NO><REV_AT_EPOCH>35025</REV_AT_EPOCH><BSTAR>.84719E-3</BSTAR><MEAN_MOTION_DOT>.2166E-4</MEAN_MOTION_DOT><MEAN_MOTION_DDOT>0</MEAN_MOTION_DDOT></tleParameters></data></segment></body></omm>
<omm id="CCSDS_OMM_VERS" version="2.0">
<header><CREATION_DATE/><ORIGINATOR/></header><body><segment><metadata><OBJECT_NAME>ORBCOMM FM17 [-]</OBJECT_NAME><OBJECT_ID>1998-046A</OBJECT_ID><CENTER_NAME>EARTH</CENTER_NAME><REF_FRAME>TEME</REF_FRAME><TIME_SYSTEM>UTC</TIME_SYSTEM><MEAN_ELEMENT_THEORY>SGP4</MEAN_ELEMENT_THEORY></metadata><data><meanElements><EPOCH>2024-01-16T19:14:06.168192</EPOCH><MEAN_MOTION>14.32704570</MEAN_MOTION><ECCENTRICITY>.0002868</ECCENTRICITY><INCLINATION>44.9934</INCLINATION><RA_OF_ASC_NODE>174.6421</RA_OF_ASC_NODE><ARG_OF_PERICENTER>151.9826</ARG_OF_PERICENTER><MEAN_ANOMALY>208.1175</MEAN_ANOMALY></meanElements><tleParameters><EPHEMERIS_TYPE>0</EPHEMERIS_TYPE><CLASSIFICATION_TYPE>U</CLASSIFICATION_TYPE><NORAD_CAT_ID>25413</NORAD_CAT_ID><ELEMENT_SET_NO>999</ELEMENT_SET_NO><REV_AT_EPOCH>32891</REV_AT_EPOCH><BSTAR>.78087E-3</BSTAR><MEAN_MOTION_DOT>.2004E-4</MEAN_MOTION_DOT><MEAN_MOTION_DDOT>0</MEAN_MOTION_DDOT></tleParameters></data></segment></body></omm>
<omm id="CCSDS_OMM_VERS" version="2.0">
<header><CREATION_DATE/><ORIGINATOR/></header><body><segment><metadata><OBJECT_NAME>ORBCOMM FM18 [-]</OBJECT_NAME><OBJECT_ID>1998-046B</OBJECT_ID><CENTER_NAME>EARTH</CENTER_NAME><REF_FRAME>TEME</REF_FRAME><TIME_SYSTEM>UTC</TIME_SYSTEM><MEAN_ELEMENT_THEORY>SGP4</MEAN_ELEMENT_THEORY></metadata><data><meanElements><EPOCH>2024-01-16T12:33:56.221632</EPOCH><MEAN_MOTION>14.35328113</MEAN_MOTION><ECCENTRICITY>.000582</ECCENTRICITY><INCLINATION>44.9936</INCLINATION><RA_OF_ASC_NODE>105.4177</RA_OF_ASC_NODE><ARG_OF_PERICENTER>208.8115</ARG_OF_PERICENTER><MEAN_ANOMALY>151.2411</MEAN_ANOMALY></meanElements><tleParameters><EPHEMERIS_TYPE>0</EPHEMERIS_TYPE><CLASSIFICATION_TYPE>U</CLASSIFICATION_TYPE><NORAD_CAT_ID>25414</NORAD_CAT_ID><ELEMENT_SET_NO>999</ELEMENT_SET_NO><REV_AT_EPOCH>32979</REV_AT_EPOCH><BSTAR>.10625E-2</BSTAR><MEAN_MOTION_DOT>.2934E-4</MEAN_MOTION_DOT><MEAN_MOTION_DDOT>0</MEAN_MOTION_DDOT></tleParameters></data></segment></body></omm>
<omm id="CCSDS_OMM_VERS" version="2.0">
<header><CREATION_DATE/><ORIGINATOR/></header><body><segment><metadata><OBJECT_NAME>ORBCOMM FM19 [+]</OBJECT_NAME><OBJECT_ID>1998-046C</OBJECT_ID><CENTER_NAME>EARTH</CENTER_NAME><REF_FRAME>TEME</REF_FRAME><TIME_SYSTEM>UTC</TIME_SYSTEM><MEAN_ELEMENT_THEORY>SGP4</MEAN_ELEMENT_THEORY></metadata><data><meanElements><EPOCH>2024-01-16T15:29:43.283904</EPOCH><MEAN_MOTION>14.35177829</MEAN_MOTION><ECCENTRICITY>.0004497</ECCENTRICITY><INCLINATION>44.9945</INCLINATION><RA_OF_ASC_NODE>106.1014</RA_OF_ASC_NODE><ARG_OF_PERICENTER>206.3519</ARG_OF_PERICENTER><MEAN_ANOMALY>307.7302</MEAN_ANOMALY></meanElements><tleParameters><EPHEMERIS_TYPE>0</EPHEMERIS_TYPE><CLASSIFICATION_TYPE>U</CLASSIFICATION_TYPE><NORAD_CAT_ID>25415</NORAD_CAT_ID><ELEMENT_SET_NO>999</ELEMENT_SET_NO><REV_AT_EPOCH>32977</REV_AT_EPOCH><BSTAR>.96031E-3</BSTAR><MEAN_MOTION_DOT>.263E-4</MEAN_MOTION_DOT><MEAN_MOTION_DDOT>0</MEAN_MOTION_DDOT></tleParameters></data></segment></body></omm>

</ndm>
